[{"OBJECT_NAME":"STARLINK-4536","OBJECT_ID":"2022-111L","EPOCH":"2026-03-09T22:19:48.489312","MEAN_MOTION":15.0883542,"ECCENTRICITY":0.00019402,"INCLINATION":53.2167,"RA_OF_ASC_NODE":272.9599,"ARG_OF_PERICENTER":102.1677,"MEAN_ANOMALY":257.9533,"EPHEMERIS_TYPE":0,"CLASSIFICATION_TYPE":"U","NORAD_CAT_ID":53783,"ELEMENT_SET_NO":999,"REV_AT_EPOCH":19373,"BSTAR":3.9163344e-5,"MEAN_MOTION_DOT":3.35e-6,"MEAN_MOTION_DDOT":0},{"OBJECT_NAME":"D-SAT","OBJECT_ID":"2017-036AF","EPOCH":"2026-03-09T22:00:14.910336","MEAN_MOTION":15.15529522,"ECCENTRICITY":0.00852401,"INCLINATION":97.5487,"RA_OF_ASC_NODE":48.252,"ARG_OF_PERICENTER":144.4633,"MEAN_ANOMALY":216.2319,"EPHEMERIS_TYPE":0,"CLASSIFICATION_TYPE":"U","NORAD_CAT_ID":42794,"ELEMENT_SET_NO":999,"REV_AT_EPOCH":47581,"BSTAR":0.00038655305,"MEAN_MOTION_DOT":7.964e-5,"MEAN_MOTION_DDOT":0}]
